ISS (ZARYA)             
1 25544U 98067A   26187.08895395  .00007119  00000+0  13761-3 0  9999
2 25544  51.6304 206.5355 0006732 261.2547  98.7678 15.48915600574686
